1 34538U 97051JF  18205.44442096 +.00000365 +00000-0 +13001-3 0  9996
2 34538 086.2800 089.3513 0044152 102.4585 311.5979 14.30853754491750
1 34540U 97051JH  18205.58115969 +.00000719 +00000-0 +17275-3 0  9990
2 34540 086.3211 061.9604 0025633 299.7867 091.0640 14.51853229497349
1 34542U 93036UC  18205.35834079 +.00000964 +00000-0 +18573-3 0  9990
2 34542 074.0246 347.6032 0027066 082.7702 277.6541 14.64748821497800
1 34544U 93036UE  18205.53977914 +.00000055 +00000-0 +70591-4 0  9998
2 34544 073.9167 234.7860 0394341 041.1862 107.9241 13.51385289464734
1 34545U 93036UF  18204.81396372 +.00001208 +00000-0 +26294-3 0  9993
2 34545 074.0351 067.5631 0018628 091.2273 033.6942 14.58982438497111
1 34546U 93036UG  18205.37906715 +.00000250 +00000-0 +93949-4 0  9992
2 34546 074.0338 185.1486 0026012 203.2097 307.4062 14.36407565492206
1 34547U 93036UH  18205.12072860 +.00000550 +00000-0 +16520-3 0  9993
2 34547 074.0393 134.1235 0038755 166.6270 193.5925 14.44567046493872
1 34550U 93036UL  18204.87788833 +.00000671 +00000-0 +23791-3 0  9994
2 34550 073.9934 359.2867 0183266 078.6009 283.5662 14.27394162485154
1 34552U 93036UN  18205.35114411 +.00001103 +00000-0 +31040-3 0  9992
2 34552 074.0333 156.3884 0034415 154.3822 005.9007 14.46720674492049
1 34553U 93036UP  18205.29353191 +.00000500 +00000-0 +16801-3 0  9994
2 34553 074.0308 171.3868 0028405 189.6312 240.3973 14.39491060491499
1 34554U 93036UQ  18205.43783795 +.00000134 +00000-0 +57470-4 0  9999
2 34554 074.0381 202.2685 0025790 210.6087 300.4783 14.33697437491138
1 34555U 93036UR  18205.21276330 +.00001037 +00000-0 +26755-3 0  9992
2 34555 074.0278 117.2637 0025145 126.8880 029.6651 14.51104089493298
1 34556U 93036US  18205.31412017 +.00000608 +00000-0 +18953-3 0  9992
2 34556 074.0308 157.0195 0024026 164.6320 346.4680 14.42824185492107
1 34560U 93036UW  18205.30670315 +.00000557 +00000-0 +17726-3 0  9993
2 34560 074.0273 160.9348 0031012 181.6157 329.0513 14.41861565491794
1 34561U 93036UX  18205.34369674 +.00000868 +00000-0 +21031-3 0  9990
2 34561 074.0338 078.3225 0044989 118.6562 241.9136 14.53916256494955
1 34563U 93036UZ  18205.18241990 +.00000143 +00000-0 +54699-4 0  9997
2 34563 074.0397 156.8707 0015843 199.6683 220.3889 14.39065776493264
1 34564U 93036VA  18205.07987743 +.00000081 +00000-0 +36231-4 0  9992
2 34564 074.0337 167.6551 0020856 215.3991 270.5227 14.36816679492191
1 34567U 93036VD  18205.54469694 -.00000012 +00000-0 +61349-5 0  9991
2 34567 074.0443 319.4950 0076814 320.3701 165.9883 14.21679417487621
1 34569U 93036VF  18205.44381773 +.00000026 +00000-0 +21533-4 0  9997
2 34569 073.9950 356.4596 0171965 075.6977 316.3340 14.17789248486762
1 34570U 93036VG  18205.40875066 +.00000189 +00000-0 +13479-3 0  9997
2 34570 073.9606 203.8259 0201370 291.6584 137.4128 13.95002423479712
1 34571U 93036VH  18205.51970021 +.00000606 +00000-0 +27567-3 0  9994
2 34571 074.0518 026.4100 0104084 002.3461 357.8150 14.21000889488937
1 34572U 93036VJ  18205.39032027 +.00000459 +00000-0 +20275-3 0  9991
2 34572 074.0201 346.0279 0100814 338.2978 051.7152 14.23412980488120
1 34574U 93036VL  18205.15773015 +.00000401 +00000-0 +10617-3 0  9992
2 34574 074.0762 093.3460 0098278 103.3422 054.9899 14.49162551495601
1 34576U 93036VN  18205.22723215 +.00000294 +00000-0 +96435-4 0  9992
2 34576 074.0400 131.0904 0010565 204.2892 306.3155 14.42709062494650
1 34577U 93036VP  18205.42761564 +.00000621 +00000-0 +13871-3 0  9990
2 34577 074.0378 009.4036 0034121 107.9210 252.5680 14.58590239498364
1 34579U 93036VR  18205.38156072 +.00000189 +00000-0 +70086-4 0  9990
2 34579 074.0555 166.2771 0030797 193.9356 325.1395 14.38527539493256
1 34582U 93036VU  18205.43243231 +.00000238 +00000-0 +91545-4 0  9992
2 34582 074.0213 198.1921 0058162 239.2997 120.2417 14.34712503491893
1 34585U 93036VX  18205.40924870 +.00001346 +00000-0 +24846-3 0  9997
2 34585 074.0291 003.2294 0015633 084.8964 275.3989 14.66428060497535
1 34588U 93036WA  18205.36613753 +.00000186 +00000-0 +73467-4 0  9995
2 34588 074.0442 190.2280 0021188 195.9656 235.1737 14.35696824492038
1 34589U 93036WB  18205.31972376 -.00000266 +00000-0 -17571-3 0  9994
2 34589 073.9259 312.5388 0258950 065.7535 326.5141 13.82143877473994
1 34590U 93036WC  18205.44621274 +.00000045 +00000-0 +17784-4 0  9998
2 34590 074.0447 009.5641 0071703 101.3836 289.7053 14.51978393499381
1 34593U 97051JK  18205.30097610 +.00083030 +00000-0 +23002-2 0  9991
2 34593 086.3242 059.6557 0000981 226.2793 133.8378 15.36641698501241
1 34609U 93036WE  18204.70712074 +.00000489 +00000-0 +24255-3 0  9998
2 34609 073.7376 311.1052 0160159 238.8592 191.7926 14.13620605484334
1 34610U 93036WF  18205.49107835 +.00000577 +00000-0 +36966-3 0  9990
2 34610 074.0263 246.3990 0211952 268.0953 089.5894 13.95180139478848
1 34611U 93036WG  18205.57116330 +.00000466 +00000-0 +13836-3 0  9998
2 34611 074.0628 128.4984 0039041 148.4792 269.4063 14.45527976492557
1 34613U 93036WJ  18205.30602119 +.00000427 +00000-0 +22467-3 0  9993
2 34613 073.9670 056.0399 0132362 115.3729 358.9404 14.12487152482639
1 34614U 93036WK  18203.80274490 +.00000208 +00000-0 +14895-3 0  9997
2 34614 073.8913 334.0197 0277424 122.7741 026.4525 13.85490060471550
1 34615U 93036WL  18205.63598478 -.00000064 +00000-0 -41576-4 0  9995
2 34615 074.0048 284.5650 0410260 022.4584 029.7421 13.49019934464060
1 34616U 93036WM  18205.49218137 +.00004508 +00000-0 +58871-3 0  9991
2 34616 074.0275 030.0214 0019346 008.3458 020.5044 14.80678018496274
1 34619U 93036WQ  18204.70361957 +.00000089 +00000-0 +24335-4 0  9995
2 34619 074.0497 309.7450 0102628 017.1195 343.3388 14.58806428499018
1 34620U 93036WR  18205.53288078 +.00000792 +00000-0 +35950-3 0  9996
2 34620 074.0680 048.2920 0127890 033.3968 354.1019 14.19182315483997
1 34622U 93036WT  18205.27896012 +.00000133 +00000-0 +77654-4 0  9999
2 34622 074.0440 059.0806 0121834 064.0316 054.7792 14.13439874482704
1 34624U 93036WV  18204.83014032 +.00005148 +00000-0 +52711-3 0  9993
2 34624 074.0007 340.8392 0017810 355.3485 155.0790 14.90657599499732
1 34626U 93036WX  18205.55017375 +.00000516 +00000-0 +13036-3 0  9999
2 34626 074.0595 046.9755 0040520 114.6916 280.0535 14.53096061498300
1 34629U 93036XA  18204.98366446 +.00002110 +00000-0 +20694-3 0  9994
2 34629 073.7813 056.8908 0061626 343.6529 016.2662 14.91596379504909
1 34631U 93036XC  18205.53553418 +.00006273 +00000-0 +39063-3 0  9990
2 34631 074.0113 161.5276 0019366 240.3252 236.0135 15.09640209505439
1 34634U 93036XF  18205.30435479 +.00000134 +00000-0 +42318-4 0  9992
2 34634 074.0538 060.5582 0051200 133.2247 344.9874 14.48665550496580
1 34635U 93036XG  18205.50720275 +.00000414 +00000-0 +12014-3 0  9996
2 34635 074.0540 107.6109 0047031 143.2161 275.6156 14.46833665495343
1 34637U 93036XJ  18205.20151906 +.00000412 +00000-0 +12193-3 0  9990
2 34637 074.0545 114.5310 0066818 148.5670 012.1928 14.45244049494440
1 34638U 93036XK  18204.89828309 +.00000742 +00000-0 +18332-3 0  9990
2 34638 074.0451 093.9479 0013172 106.3222 019.9404 14.53790297494784
1 34639U 93036XL  18205.49345204 +.00001105 +00000-0 +28422-3 0  9991
2 34639 074.0328 123.6634 0047547 146.1029 329.3296 14.50716468493592
1 34641U 93036XN  18205.15766681 +.00000321 +00000-0 +11399-3 0  9997
2 34641 073.8431 102.5234 0020875 187.7874 323.0089 14.38519375493600
1 34642U 93036XP  18205.57311438 +.00000315 +00000-0 +22309-3 0  9996
2 34642 074.0072 282.4020 0230404 333.3087 089.8156 13.89822307477849
1 34643U 97051JU  18204.92178668 +.00001415 +00000-0 +34458-3 0  9992
2 34643 086.3837 105.2403 0033061 307.0421 052.7761 14.51773742492107
1 34648U 97051JZ  18205.08969983 +.00003056 +00000-0 +21463-2 0  9997
2 34648 086.4127 251.8444 0234880 243.7057 143.7370 13.85616090474151
1 34651U 97051KC  18205.33188012 +.00000366 +00000-0 +19847-3 0  9990
2 34651 086.2954 172.5066 0192762 341.1189 018.2905 14.00973099479407
1 34652U 97051KD  18205.41476944 +.00000400 +00000-0 +10545-3 0  9999
2 34652 086.3352 076.6688 0036735 320.2462 164.6683 14.46194025495348
1 34671U 93036XR  18205.53688834 +.00000518 +00000-0 +16288-3 0  9995
2 34671 074.0348 147.5777 0022531 172.5898 308.6794 14.42770671492360
1 34672U 93036XS  18205.33970201 +.00000115 +00000-0 +51228-4 0  9993
2 34672 074.0336 203.7558 0026618 216.9088 206.8636 14.33146158264979
1 34674U 93036XU  18205.10807539 +.00000897 +00000-0 +17607-3 0  9992
2 34674 073.9827 354.5307 0114560 237.3473 121.6600 14.60252311497039
1 34675U 93036XV  18205.13860046 +.00001044 +00000-0 +26875-3 0  9990
2 34675 074.0350 115.2918 0037095 141.3570 219.0256 14.51002317493687
1 34678U 93036XY  18205.50039819 +.00000003 +00000-0 +11220-4 0  9993
2 34678 074.0353 228.9380 0026196 213.9205 296.8382 14.29688837488150
1 34679U 93036XZ  18204.74771252 +.00000967 +00000-0 +17366-3 0  9998
2 34679 074.0111 327.7492 0047063 042.7784 317.7032 14.67480551498736
1 34680U 93036YA  18205.24731375 +.00000295 +00000-0 +95081-4 0  9993
2 34680 074.0491 134.2910 0012291 178.4634 332.3477 14.43508828493071
1 34681U 93036YB  18205.26190080 +.00000418 +00000-0 +10251-3 0  9990
2 34681 074.0746 038.8108 0043462 091.0871 031.9512 14.55039663498559
1 34682U 93036YC  18205.16315461 +.00000250 +00000-0 +77839-4 0  9992
2 34682 074.0439 100.8152 0023999 183.3488 328.9659 14.45847110495977
1 34683U 93036YD  18205.19525461 +.00000243 +00000-0 +76869-4 0  9993
2 34683 074.0348 117.2783 0029021 174.3760 341.8895 14.45002918492459
1 34685U 93036YF  18205.20927177 +.00000275 +00000-0 +91933-4 0  9991
2 34685 074.0348 142.3064 0020419 187.5444 241.5432 14.41946742495857
1 34687U 93036YH  18205.51742291 +.00001832 +00000-0 +15324-3 0  9998
2 34687 073.9245 035.1000 0094874 179.3498 212.5152 14.95915006508182
1 34689U 93036YK  18205.16737888 +.00000937 +00000-0 +66434-3 0  9990
2 34689 074.0989 093.1884 0301508 088.1559 065.3179 13.79221323470459
1 34690U 97051KM  18205.50481747 +.00001026 +00000-0 +30524-3 0  9992
2 34690 086.3858 109.9010 0010012 007.0907 114.9346 14.42226502491313
